O3B MPOWER F1           
1 54755U 22174A   26186.06831412 -.00000012  00000+0  00000+0 0  9992
2 54755   0.0502 340.0280 0006564 135.2072 127.2401  5.00114803 66251
O3B MPOWER F2           
1 54756U 22174B   26186.10032066 -.00000012  00000+0  00000+0 0  9996
2 54756   0.0461 340.0724 0005825 118.8754 261.1181  5.00114992 66344
O3B MPOWER F4           
1 56367U 23059A   26185.96466989 -.00000012  00000+0  00000+0 0  9997
2 56367   0.0631 351.6173 0007716 116.5154 251.9513  5.00115491 59498
O3B MPOWER F3           
1 56368U 23059B   26185.79793106 -.00000012  00000+0  00000+0 0  9993
2 56368   0.0638 351.0425 0006695 109.8858 259.1469  5.00116546 55613
O3B MPOWER F5           
1 58346U 23175A   26186.09880847 -.00000012  00000+0  00000+0 0  9993
2 58346   0.0510  10.0204 0005384 111.9225 238.1094  5.00115972 50330
O3B MPOWER F6           
1 58347U 23175B   26185.59961118 -.00000012  00000+0  00000+0 0  9999
2 58347   0.0533   1.8509 0004450  98.6431 259.5558  5.00115843 49220
O3B MPOWER F7           
1 62362U 24244A   26186.06578201 -.00000012  00000+0  00000+0 0  9999
2 62362   0.0666 344.6573 0005967 114.8636 260.5466  5.00115450 27422
O3B MPOWER F8           
1 62363U 24244B   26185.83283748 -.00000012  00000+0  00000+0 0  9993
2 62363   0.0143 351.3774 0005843 101.0939 267.5954  5.00115079 21754
O3B MPOWER F9           
1 64866U 25153A   26185.96612412 -.00000012  00000+0  00000+0 0  9991
2 64866   0.0602   7.1006 0006599 115.6618 237.3011  5.00115720 20450
O3B MPOWER F10          
1 64867U 25153B   26185.93215839 -.00000012  00000+0  00000+0 0  9991
2 64867   0.0576   3.4738 0002127 246.5619 109.9412  5.00114974 22923
