{"fetched_at":"2026-07-05T12:48:27.872Z","source":"https://celestrak.org/NORAD/elements/gp.php?NAME=O3B&FORMAT=JSON","constellation":"o3b-mpower","records":[{"OBJECT_NAME":"O3B MPOWER F1","OBJECT_ID":"2022-174A","EPOCH":"2026-07-05T01:38:22.339968","CLASSIFICATION_TYPE":"U","MEAN_MOTION":5.00114803,"ECCENTRICITY":0.00065644,"INCLINATION":0.0502,"RA_OF_ASC_NODE":340.028,"ARG_OF_PERICENTER":135.2072,"MEAN_ANOMALY":127.2401,"EPHEMERIS_TYPE":0,"NORAD_CAT_ID":54755,"ELEMENT_SET_NO":999,"REV_AT_EPOCH":6625,"BSTAR":0,"MEAN_MOTION_DOT":-1.2e-7,"MEAN_MOTION_DDOT":0},{"OBJECT_NAME":"O3B MPOWER F2","OBJECT_ID":"2022-174B","EPOCH":"2026-07-05T02:24:27.705024","CLASSIFICATION_TYPE":"U","MEAN_MOTION":5.00114992,"ECCENTRICITY":0.0005825,"INCLINATION":0.0461,"RA_OF_ASC_NODE":340.0724,"ARG_OF_PERICENTER":118.8754,"MEAN_ANOMALY":261.1181,"EPHEMERIS_TYPE":0,"NORAD_CAT_ID":54756,"ELEMENT_SET_NO":999,"REV_AT_EPOCH":6634,"BSTAR":0,"MEAN_MOTION_DOT":-1.2e-7,"MEAN_MOTION_DDOT":0},{"OBJECT_NAME":"O3B MPOWER F4","OBJECT_ID":"2023-059A","EPOCH":"2026-07-04T23:09:07.478496","CLASSIFICATION_TYPE":"U","MEAN_MOTION":5.00115491,"ECCENTRICITY":0.0007716,"INCLINATION":0.0631,"RA_OF_ASC_NODE":351.6173,"ARG_OF_PERICENTER":116.5154,"MEAN_ANOMALY":251.9513,"EPHEMERIS_TYPE":0,"NORAD_CAT_ID":56367,"ELEMENT_SET_NO":999,"REV_AT_EPOCH":5949,"BSTAR":0,"MEAN_MOTION_DOT":-1.2e-7,"MEAN_MOTION_DDOT":0},{"OBJECT_NAME":"O3B MPOWER F3","OBJECT_ID":"2023-059B","EPOCH":"2026-07-04T19:09:01.243584","CLASSIFICATION_TYPE":"U","MEAN_MOTION":5.00116546,"ECCENTRICITY":0.00066951,"INCLINATION":0.0638,"RA_OF_ASC_NODE":351.0425,"ARG_OF_PERICENTER":109.8858,"MEAN_ANOMALY":259.1469,"EPHEMERIS_TYPE":0,"NORAD_CAT_ID":56368,"ELEMENT_SET_NO":999,"REV_AT_EPOCH":5561,"BSTAR":0,"MEAN_MOTION_DOT":-1.2e-7,"MEAN_MOTION_DDOT":0},{"OBJECT_NAME":"O3B MPOWER F5","OBJECT_ID":"2023-175A","EPOCH":"2026-07-05T02:22:17.051808","CLASSIFICATION_TYPE":"U","MEAN_MOTION":5.00115972,"ECCENTRICITY":0.00053845,"INCLINATION":0.051,"RA_OF_ASC_NODE":10.0204,"ARG_OF_PERICENTER":111.9225,"MEAN_ANOMALY":238.1094,"EPHEMERIS_TYPE":0,"NORAD_CAT_ID":58346,"ELEMENT_SET_NO":999,"REV_AT_EPOCH":5033,"BSTAR":0,"MEAN_MOTION_DOT":-1.2e-7,"MEAN_MOTION_DDOT":0},{"OBJECT_NAME":"O3B MPOWER F6","OBJECT_ID":"2023-175B","EPOCH":"2026-07-04T14:23:26.405952","CLASSIFICATION_TYPE":"U","MEAN_MOTION":5.00115843,"ECCENTRICITY":0.00044504,"INCLINATION":0.0533,"RA_OF_ASC_NODE":1.8509,"ARG_OF_PERICENTER":98.6431,"MEAN_ANOMALY":259.5558,"EPHEMERIS_TYPE":0,"NORAD_CAT_ID":58347,"ELEMENT_SET_NO":999,"REV_AT_EPOCH":4922,"BSTAR":0,"MEAN_MOTION_DOT":-1.2e-7,"MEAN_MOTION_DDOT":0},{"OBJECT_NAME":"O3B MPOWER F7","OBJECT_ID":"2024-244A","EPOCH":"2026-07-05T01:34:43.565664","CLASSIFICATION_TYPE":"U","MEAN_MOTION":5.0011545,"ECCENTRICITY":0.00059674,"INCLINATION":0.0666,"RA_OF_ASC_NODE":344.6573,"ARG_OF_PERICENTER":114.8636,"MEAN_ANOMALY":260.5466,"EPHEMERIS_TYPE":0,"NORAD_CAT_ID":62362,"ELEMENT_SET_NO":999,"REV_AT_EPOCH":2742,"BSTAR":0,"MEAN_MOTION_DOT":-1.2e-7,"MEAN_MOTION_DDOT":0},{"OBJECT_NAME":"O3B MPOWER F8","OBJECT_ID":"2024-244B","EPOCH":"2026-07-04T19:59:17.158272","CLASSIFICATION_TYPE":"U","MEAN_MOTION":5.00115079,"ECCENTRICITY":0.0005843,"INCLINATION":0.0143,"RA_OF_ASC_NODE":351.3774,"ARG_OF_PERICENTER":101.0939,"MEAN_ANOMALY":267.5954,"EPHEMERIS_TYPE":0,"NORAD_CAT_ID":62363,"ELEMENT_SET_NO":999,"REV_AT_EPOCH":2175,"BSTAR":0,"MEAN_MOTION_DOT":-1.2e-7,"MEAN_MOTION_DDOT":0},{"OBJECT_NAME":"O3B MPOWER F9","OBJECT_ID":"2025-153A","EPOCH":"2026-07-04T23:11:13.123968","CLASSIFICATION_TYPE":"U","MEAN_MOTION":5.0011572,"ECCENTRICITY":0.00065999,"INCLINATION":0.0602,"RA_OF_ASC_NODE":7.1006,"ARG_OF_PERICENTER":115.6618,"MEAN_ANOMALY":237.3011,"EPHEMERIS_TYPE":0,"NORAD_CAT_ID":64866,"ELEMENT_SET_NO":999,"REV_AT_EPOCH":2045,"BSTAR":0,"MEAN_MOTION_DOT":-1.2e-7,"MEAN_MOTION_DDOT":0},{"OBJECT_NAME":"O3B MPOWER F10","OBJECT_ID":"2025-153B","EPOCH":"2026-07-04T22:22:18.484896","CLASSIFICATION_TYPE":"U","MEAN_MOTION":5.00114974,"ECCENTRICITY":0.00021275,"INCLINATION":0.0576,"RA_OF_ASC_NODE":3.4738,"ARG_OF_PERICENTER":246.5619,"MEAN_ANOMALY":109.9412,"EPHEMERIS_TYPE":0,"NORAD_CAT_ID":64867,"ELEMENT_SET_NO":999,"REV_AT_EPOCH":2292,"BSTAR":0,"MEAN_MOTION_DOT":-1.2e-7,"MEAN_MOTION_DDOT":0}]}
